{
"type": "FeatureCollection",
"name": "osm_tidal_reaches",
"crs": { "type": "name", "properties": { "name": "urn:ogc:def:crs:OGC:1.3:CRS84" } },
"features": [
{ "type": "Feature", "properties": { "river": "Elbe" }, "geometry": { "type": "MultiLineString", "coordinates": [ [ [ 9.9238197, 53.5417286 ], [ 9.909943, 53.5417399 ], [ 9.901191, 53.541894 ], [ 9.8960371, 53.5419868 ], [ 9.8941738, 53.5420204 ], [ 9.879338, 53.5424017 ], [ 9.8761118, 53.542557 ], [ 9.872858, 53.5428061 ], [ 9.8694088, 53.5430991 ], [ 9.8666211, 53.5434236 ], [ 9.8646637, 53.5436515 ], [ 9.8597793, 53.5442685 ], [ 9.8588605, 53.5443846 ], [ 9.8566943, 53.5446824 ], [ 9.8497517, 53.5456366 ], [ 9.8352163, 53.5480973 ], [ 9.8280859, 53.5493217 ], [ 9.820962, 53.5505361 ], [ 9.8117674, 53.5520958 ], [ 9.8058638, 53.5532545 ], [ 9.8051133, 53.5534018 ], [ 9.7952664, 53.5554414 ], [ 9.7881425, 53.5567096 ], [ 9.7800207, 53.558334 ], [ 9.7768879, 53.5588566 ], [ 9.7751975, 53.5590901 ], [ 9.7714805, 53.5595066 ], [ 9.7505567, 53.5615092 ], [ 9.7334408, 53.5628008 ], [ 9.7028589, 53.5653182 ], [ 9.6840034, 53.5671446 ], [ 9.6737655, 53.5683359 ], [ 9.6663947, 53.5689638 ], [ 9.6630831, 53.569281 ], [ 9.6556306, 53.569944 ], [ 9.6540655, 53.5702007 ], [ 9.6528625, 53.5704664 ], [ 9.6449959, 53.5727962 ], [ 9.644361, 53.5729779 ], [ 9.6374954, 53.575819 ], [ 9.6232142, 53.5817283 ], [ 9.5932111, 53.5997624 ], [ 9.5649205, 53.6125015 ], [ 9.5601225, 53.614519 ], [ 9.5576978, 53.6155755 ], [ 9.554794, 53.61704 ], [ 9.5516896, 53.6189103 ], [ 9.5483324, 53.6214515 ], [ 9.5387077, 53.6273225 ], [ 9.5325708, 53.6316615 ], [ 9.529747, 53.6338977 ], [ 9.525361, 53.6394224 ], [ 9.5210529, 53.6453264 ], [ 9.519782, 53.647487 ], [ 9.5185892, 53.6501186 ], [ 9.5097172, 53.6727789 ], [ 9.5066973, 53.6790214 ], [ 9.5006052, 53.6888937 ], [ 9.4966335, 53.6982373 ], [ 9.4913292, 53.7039219 ], [ 9.4859591, 53.7092121 ], [ 9.4823169, 53.7120758 ], [ 9.4780683, 53.7150474 ], [ 9.4690615, 53.7210024 ], [ 9.4574475, 53.7268174 ], [ 9.4529713, 53.7287061 ], [ 9.4470834, 53.73074 ], [ 9.439915, 53.7333569 ], [ 9.4367516, 53.7346432 ], [ 9.4336851, 53.736091 ], [ 9.4292736, 53.7386603 ], [ 9.4248686, 53.7411377 ], [ 9.4213222, 53.7432507 ], [ 9.4134006, 53.7475314 ], [ 9.4097042, 53.7496498 ], [ 9.4074726, 53.7510328 ], [ 9.4056036, 53.7525155 ], [ 9.4042969, 53.7541792 ], [ 9.4030092, 53.7561838 ], [ 9.3843402, 53.7871914 ], [ 9.3776829, 53.7977876 ], [ 9.3765731, 53.7993781 ], [ 9.3731867, 53.8064561 ], [ 9.3716967, 53.8107965 ], [ 9.3677026, 53.8171799 ], [ 9.3611684, 53.8234711 ], [ 9.358289, 53.826243 ], [ 9.3409102, 53.8370236 ], [ 9.3393025, 53.8380208 ], [ 9.3205305, 53.8496622 ], [ 9.3016616, 53.8600884 ], [ 9.2943295, 53.8641391 ], [ 9.2689863, 53.870117 ], [ 9.2545111, 53.8741465 ], [ 9.2478458, 53.8760018 ], [ 9.2356361, 53.877776 ], [ 9.2279632, 53.8789056 ], [ 9.2252189, 53.8792897 ], [ 9.2169804, 53.8803247 ], [ 9.2105447, 53.8806276 ], [ 9.1901002, 53.8815898 ], [ 9.1616605, 53.8807416 ], [ 9.1241121, 53.8796876 ], [ 9.1179215, 53.8794627 ], [ 9.1134444, 53.8792578 ], [ 9.1097259, 53.8791614 ], [ 9.1065609, 53.8789635 ], [ 9.0916483, 53.8766572 ], [ 9.077778, 53.8733439 ], [ 9.0520008, 53.8665094 ], [ 9.0263201, 53.8602752 ], [ 9.0010887, 53.8536148 ], [ 8.9852329, 53.8508654 ], [ 8.9696222, 53.8490955 ], [ 8.9355292, 53.8460009 ], [ 8.902424, 53.8430971 ], [ 8.8933391, 53.8422592 ], [ 8.8932127, 53.8422475 ], [ 8.8693837, 53.8402195 ], [ 8.8362896, 53.8390416 ], [ 8.8111344, 53.8397365 ], [ 8.7882713, 53.8414103 ], [ 8.7741695, 53.8451934 ], [ 8.7672087, 53.8470606 ], [ 8.7507025, 53.8555903 ], [ 8.7387022, 53.8625788 ], [ 8.7269251, 53.8708743 ], [ 8.720135, 53.8756564 ], [ 8.718466, 53.8768317 ], [ 8.6976938, 53.8956216 ], [ 8.6948722, 53.8981733 ] ], [ [ 10.3022711, 53.4330646 ], [ 10.2994085, 53.4317032 ], [ 10.2948721, 53.4293153 ], [ 10.2940453, 53.4288883 ], [ 10.2914133, 53.4262291 ], [ 10.288301, 53.4251104 ], [ 10.285988, 53.4243727 ], [ 10.2850797, 53.424083 ], [ 10.2831176, 53.4235537 ], [ 10.2785378, 53.4224651 ], [ 10.2730041, 53.4213299 ], [ 10.2688135, 53.4212546 ], [ 10.2661762, 53.4212494 ], [ 10.261707, 53.4197546 ], [ 10.2582432, 53.4181646 ], [ 10.2555959, 53.4166077 ], [ 10.2526556, 53.4143517 ], [ 10.2505568, 53.4120222 ], [ 10.2483469, 53.4086371 ], [ 10.2471121, 53.4065906 ], [ 10.2473148, 53.4029647 ], [ 10.2462062, 53.4009401 ], [ 10.245424, 53.3998086 ], [ 10.2446716, 53.3990223 ], [ 10.2428737, 53.3976165 ], [ 10.240354, 53.3962603 ], [ 10.2374784, 53.3952901 ], [ 10.2326017, 53.3944003 ], [ 10.2307556, 53.3942857 ], [ 10.2248436, 53.3943778 ], [ 10.2208549, 53.3946039 ], [ 10.2171738, 53.3951164 ], [ 10.2118908, 53.3959661 ], [ 10.2069332, 53.3983432 ], [ 10.203416, 53.3989925 ], [ 10.2015476, 53.3992069 ], [ 10.1976652, 53.3993436 ], [ 10.1939419, 53.3991362 ], [ 10.1881243, 53.3982191 ], [ 10.1856582, 53.3978326 ], [ 10.1803481, 53.397035 ], [ 10.1763045, 53.3959258 ], [ 10.1731977, 53.3960639 ], [ 10.1715095, 53.3963447 ], [ 10.1700392, 53.396797 ], [ 10.1694067, 53.3969916 ], [ 10.1663097, 53.3981201 ], [ 10.1629711, 53.3995651 ], [ 10.1602439, 53.4009326 ], [ 10.1573367, 53.4026322 ], [ 10.1547678, 53.4043534 ], [ 10.1522874, 53.4062882 ], [ 10.1509855, 53.4075506 ], [ 10.150363, 53.4081543 ], [ 10.1485686, 53.4102055 ], [ 10.1468989, 53.4121019 ], [ 10.1463501, 53.4140681 ], [ 10.1456278, 53.4165935 ], [ 10.1452043, 53.4176537 ], [ 10.1430337, 53.4195565 ], [ 10.1402702, 53.4215956 ], [ 10.1369013, 53.4230884 ], [ 10.1355566, 53.4235085 ], [ 10.1320868, 53.4242718 ], [ 10.1279432, 53.4245373 ], [ 10.1231925, 53.4244424 ], [ 10.1201977, 53.4245285 ], [ 10.1119999, 53.4250713 ], [ 10.1099611, 53.4252059 ], [ 10.1067864, 53.4265871 ], [ 10.1060007, 53.4270406 ], [ 10.1037051, 53.4286789 ], [ 10.1028544, 53.4295372 ], [ 10.1012077, 53.4317622 ], [ 10.0986696, 53.4354592 ], [ 10.0958854, 53.4395311 ], [ 10.0943375, 53.4416496 ], [ 10.0936521, 53.4437463 ], [ 10.0927244, 53.4460201 ], [ 10.0903289, 53.4478281 ], [ 10.0870271, 53.450044 ], [ 10.0856753, 53.4509478 ], [ 10.085598, 53.450981 ] ] ] } },
{ "type": "Feature", "properties": { "river": "Weser" }, "geometry": { "type": "LineString", "coordinates": [ [ 8.7890971, 53.0806643 ], [ 8.787441, 53.0810674 ], [ 8.7833012, 53.0816451 ], [ 8.7806583, 53.0820267 ], [ 8.7772422, 53.0829582 ], [ 8.7736322, 53.0842135 ], [ 8.7703366, 53.0859742 ], [ 8.7674558, 53.0877532 ], [ 8.7647535, 53.0905666 ], [ 8.7631757, 53.0923848 ], [ 8.7587997, 53.0969141 ], [ 8.753425, 53.100453 ], [ 8.7499022, 53.1026123 ], [ 8.7476533, 53.1044008 ], [ 8.7449268, 53.1069708 ], [ 8.7436775, 53.1083694 ], [ 8.7415578, 53.1102393 ], [ 8.7389148, 53.1121913 ], [ 8.7371047, 53.1131491 ], [ 8.735148, 53.1141844 ], [ 8.7313006, 53.1156276 ], [ 8.727695, 53.1166062 ], [ 8.7256471, 53.1170648 ], [ 8.7226238, 53.1177363 ], [ 8.7203346, 53.1179931 ], [ 8.7173619, 53.11829 ], [ 8.7126497, 53.1184864 ], [ 8.7067696, 53.118589 ], [ 8.6988989, 53.1192432 ], [ 8.6896699, 53.1204743 ], [ 8.6793841, 53.1229238 ], [ 8.6751392, 53.1240505 ], [ 8.6701791, 53.1250301 ], [ 8.667887, 53.1254828 ], [ 8.6633568, 53.125908 ], [ 8.6613822, 53.1260933 ], [ 8.6522846, 53.1270343 ], [ 8.648829, 53.127918 ], [ 8.6471279, 53.1285255 ], [ 8.6453379, 53.1293522 ], [ 8.643789, 53.1300676 ], [ 8.6399676, 53.1320933 ], [ 8.6368348, 53.1343333 ], [ 8.6349911, 53.1359357 ], [ 8.6344058, 53.1364444 ], [ 8.6315811, 53.1398621 ], [ 8.6293084, 53.1437901 ], [ 8.6278957, 53.1477911 ], [ 8.6268034, 53.1534653 ], [ 8.6263606, 53.1577753 ], [ 8.6255987, 53.1618583 ], [ 8.6252519, 53.1627334 ], [ 8.6244645, 53.1641011 ], [ 8.6233907, 53.1650656 ], [ 8.6201223, 53.1673979 ], [ 8.6192864, 53.1678949 ], [ 8.6164227, 53.1691468 ], [ 8.6160673, 53.1692641 ], [ 8.6140904, 53.1699166 ], [ 8.6121263, 53.1703057 ], [ 8.6100407, 53.1705688 ], [ 8.6049972, 53.1710966 ], [ 8.6027356, 53.1712641 ], [ 8.5997074, 53.1715194 ], [ 8.5924193, 53.1720831 ], [ 8.5867939, 53.1725091 ], [ 8.5834915, 53.1727591 ], [ 8.5804655, 53.1737759 ], [ 8.5791321, 53.1741314 ], [ 8.5739638, 53.1759583 ], [ 8.5729453, 53.1763058 ], [ 8.5663229, 53.1785651 ], [ 8.560805, 53.1803961 ], [ 8.5583423, 53.1812 ], [ 8.5574522, 53.181502 ], [ 8.548574, 53.1845453 ], [ 8.5389055, 53.1878173 ], [ 8.5332198, 53.1897609 ], [ 8.5309401, 53.1905402 ], [ 8.5236519, 53.1939912 ], [ 8.5217538, 53.1948793 ], [ 8.5195408, 53.1960187 ], [ 8.51723, 53.1974022 ], [ 8.5170073, 53.1975376 ], [ 8.5107323, 53.2013536 ], [ 8.5099165, 53.2021407 ], [ 8.5077959, 53.2041868 ], [ 8.5024201, 53.2093732 ], [ 8.5022028, 53.209569 ], [ 8.4990012, 53.2124533 ], [ 8.4954808, 53.2158125 ], [ 8.4947053, 53.2165582 ], [ 8.4944546, 53.2168012 ], [ 8.4938781, 53.2173598 ], [ 8.4894946, 53.2216855 ], [ 8.4885383, 53.2228088 ], [ 8.4869009, 53.2251927 ], [ 8.4839888, 53.2294323 ], [ 8.4822835, 53.2338308 ], [ 8.4821464, 53.2342647 ], [ 8.4817421, 53.2355438 ], [ 8.4811513, 53.2402546 ], [ 8.4811118, 53.2428716 ], [ 8.4810393, 53.2476792 ], [ 8.48167, 53.2516994 ], [ 8.4822545, 53.2551483 ], [ 8.4822339, 53.2551947 ], [ 8.4825191, 53.257193 ], [ 8.4827408, 53.2587343 ], [ 8.4828892, 53.259289 ], [ 8.4831329, 53.2601538 ], [ 8.4852862, 53.2691497 ], [ 8.4854273, 53.269765 ], [ 8.4874642, 53.2786444 ], [ 8.4894372, 53.2873086 ], [ 8.4907029, 53.2928661 ], [ 8.4916112, 53.2968536 ], [ 8.4918305, 53.2978162 ], [ 8.4921596, 53.3039744 ], [ 8.4918203, 53.3062079 ], [ 8.4916231, 53.3082486 ], [ 8.4906696, 53.3151236 ], [ 8.4892183, 53.3216466 ], [ 8.4893956, 53.3259262 ], [ 8.4896804, 53.3285028 ], [ 8.4935528, 53.3324613 ], [ 8.4939395, 53.3330394 ], [ 8.4941581, 53.3333998 ], [ 8.4999826, 53.3428732 ], [ 8.5014294, 53.3454344 ], [ 8.5010599, 53.3519454 ], [ 8.5010604, 53.3530613 ], [ 8.5006577, 53.3573253 ], [ 8.5006649, 53.3622416 ], [ 8.5006202, 53.3625764 ], [ 8.5005753, 53.362913 ], [ 8.5004799, 53.3636276 ], [ 8.5000959, 53.3670545 ], [ 8.4987633, 53.3765525 ], [ 8.4975924, 53.3851364 ], [ 8.4970852, 53.3891876 ], [ 8.4954105, 53.403242 ], [ 8.4954922, 53.4044839 ], [ 8.4941987, 53.4135315 ], [ 8.4934332, 53.4196159 ], [ 8.4932, 53.4222579 ], [ 8.4928139, 53.4264955 ], [ 8.4922624, 53.4325479 ], [ 8.4914369, 53.4470687 ], [ 8.4913344, 53.4488707 ], [ 8.4916539, 53.4595104 ], [ 8.4934411, 53.4709211 ], [ 8.494107, 53.4759391 ], [ 8.4942419, 53.4777745 ], [ 8.4956844, 53.4841633 ], [ 8.4960777, 53.4852268 ], [ 8.4976953, 53.4873853 ], [ 8.4985868, 53.4883178 ], [ 8.5041649, 53.4941524 ], [ 8.5118051, 53.5007395 ], [ 8.5173361, 53.5060918 ] ] } }
]
}
